[{"OBJECT_NAME":"SAUDISAT 4","OBJECT_ID":"2014-033G","EPOCH":"2026-03-09T23:14:52.668960","MEAN_MOTION":14.79390687,"ECCENTRICITY":0.00457103,"INCLINATION":97.7413,"RA_OF_ASC_NODE":218.6273,"ARG_OF_PERICENTER":37.8064,"MEAN_ANOMALY":322.6344,"EPHEMERIS_TYPE":0,"CLASSIFICATION_TYPE":"U","NORAD_CAT_ID":40016,"ELEMENT_SET_NO":999,"REV_AT_EPOCH":63140,"BSTAR":0.00014306526,"MEAN_MOTION_DOT":1.033e-5,"MEAN_MOTION_DDOT":0},{"OBJECT_NAME":"KINEIS-2E","OBJECT_ID":"2025-028D","EPOCH":"2026-03-09T16:44:14.801856","MEAN_MOTION":14.7671567,"ECCENTRICITY":0.00019431,"INCLINATION":97.9078,"RA_OF_ASC_NODE":122.4137,"ARG_OF_PERICENTER":111.3454,"MEAN_ANOMALY":248.7964,"EPHEMERIS_TYPE":0,"CLASSIFICATION_TYPE":"U","NORAD_CAT_ID":62931,"ELEMENT_SET_NO":999,"REV_AT_EPOCH":5809,"BSTAR":0.000272559,"MEAN_MOTION_DOT":1.858e-5,"MEAN_MOTION_DDOT":0}]
